OBJECT_NAME,OBJECT_ID,EPOCH,MEAN_MOTION,ECCENTRICITY,INCLINATION,RA_OF_ASC_NODE,ARG_OF_PERICENTER,MEAN_ANOMALY,EPHEMERIS_TYPE,CLASSIFICATION_TYPE,NORAD_CAT_ID,ELEMENT_SET_NO,REV_AT_EPOCH,BSTAR,MEAN_MOTION_DOT,MEAN_MOTION_DDOT
STARLINK-3229,2021-115AD,2024-07-07T18:28:18.739776,15.08851425,.000139,53.2170,7.0850,85.1301,274.9850,0,U,49751,999,14457,.7481E-3,.11642E-3,0
STARLINK-3209,2021-115AE,2024-07-07T05:00:15.086016,15.08842361,.0001227,53.2193,359.6882,80.8527,279.2604,0,U,49752,999,14462,.39975E-4,.348E-5,0
STARLINK-3200,2021-115AF,2024-07-07T18:49:31.101600,15.08843568,.000132,53.2187,7.0947,94.3341,265.7802,0,U,49753,999,14457,.18925E-4,.13E-6,0
STARLINK-3193,2021-115AG,2024-07-07T11:25:43.893408,15.08839297,.0001266,53.2170,358.5835,93.0965,267.0172,0,U,49754,999,14466,.14714E-3,.2055E-4,0
STARLINK-3210,2021-115AH,2024-07-07T04:48:20.204640,15.08838116,.000118,53.2178,9.7622,81.4798,278.6328,0,U,49755,999,14337,.20255E-4,.35E-6,0
STARLINK-3207,2021-115AJ,2024-07-07T16:22:28.007040,15.08847802,.0001383,53.2165,357.5506,89.4843,270.6308,0,U,49756,999,14469,.32791E-3,.4936E-4,0
STARLINK-3197,2021-115AK,2024-07-07T17:48:38.223648,15.08855247,.000103,53.2165,357.2965,66.1639,293.9461,0,U,49757,999,14470,.29951E-3,.4484E-4,0
STARLINK-3194,2021-115AL,2024-07-07T18:08:26.968416,15.08841225,.0000934,53.2180,357.2238,87.6794,272.4305,0,U,49758,999,14470,.68581E-4,.804E-5,0
STARLINK-3204,2021-115AM,2024-07-07T05:09:28.090944,15.08842809,.0001189,53.2181,359.6511,89.8072,270.3057,0,U,49759,999,14351,.11728E-3,.1579E-4,0
STARLINK-3199,2021-115AN,2024-07-08T03:51:21.439584,15.08846811,.0001365,53.2192,355.4104,101.3429,258.7717,0,U,49760,999,14477,.54938E-4,.587E-5,0
STARLINK-3203,2021-115AP,2024-07-07T18:03:08.800416,15.08849116,.000129,53.2195,357.2411,90.6908,269.4232,0,U,49761,999,14470,.14556E-4,-.56E-6,0
STARLINK-3195,2021-115AQ,2024-07-07T16:54:15.828768,15.08841239,.0001705,53.2190,357.4576,110.7691,249.3484,0,U,49762,999,14470,.23229E-3,.3411E-4,0
STARLINK-3198,2021-115AR,2024-07-08T03:46:03.649152,15.08852714,.000109,53.2189,355.4193,74.9718,285.1395,0,U,49763,999,14477,.37069E-3,.5619E-4,0
STARLINK-3206,2021-115AS,2024-07-07T22:00:00.999936,15.32855220,.0001269,53.2133,355.7206,80.2512,355.4534,0,U,49764,999,14474,.40539E-1,.1443415E-1,0
STARLINK-3227,2021-115AT,2024-07-08T03:58:02.751168,15.08831510,.0001334,53.2192,355.3949,100.4299,259.6844,0,U,49765,999,14477,.27197E-3,.4042E-4,0
STARLINK-3190,2021-115AU,2024-07-08T04:19:14.483136,15.08855150,.0001228,53.2186,355.3269,71.6794,288.4332,0,U,49766,999,14477,.64653E-3,.10021E-3,0
STARLINK-3192,2021-115AV,2024-07-08T04:07:15.594528,15.08843916,.0001214,53.2182,355.3534,89.6533,270.4598,0,U,49767,999,14477,.31909E-4,.22E-5,0
STARLINK-3196,2021-115AW,2024-07-07T18:56:08.612448,15.08843553,.0001403,53.2173,357.0744,90.1410,269.9743,0,U,49768,999,14471,.12385E-3,.1684E-4,0
STARLINK-3208,2021-115AX,2024-07-07T18:57:31.388832,15.08849729,.0001053,53.2180,357.1153,82.8689,277.2422,0,U,49769,999,14471,.95557E-4,.1234E-4,0
STARLINK-3191,2021-115AY,2024-07-07T11:11:12.252192,15.08838265,.0001316,53.2159,358.5727,86.2863,273.8280,0,U,49770,999,14467,.11685E-3,.1572E-4,0
STARLINK-3201,2021-115AZ,2024-07-07T17:31:21.111744,15.08848925,.000112,53.2189,357.3406,83.8633,276.2487,0,U,49771,999,14470,.53601E-4,.566E-5,0
STARLINK-3317,2021-125A,2024-07-08T03:27:34.097760,15.08847784,.0001446,53.2172,105.4797,90.6767,269.4391,0,U,50156,999,14410,.23493E-3,.3454E-4,0
STARLINK-3313,2021-125B,2024-07-08T00:51:11.382624,15.08840264,.0001449,53.2180,115.9700,95.6434,264.4724,0,U,50157,999,14133,.11802E-3,.1591E-4,0
STARLINK-3309,2021-125C,2024-07-07T19:50:30.801696,15.08838327,.0001324,53.2173,116.9113,84.2944,275.8199,0,U,50158,999,14130,.90922E-4,.1159E-4,0
STARLINK-3297,2021-125D,2024-07-07T19:45:13.135680,15.08834092,.0001364,53.2155,116.9295,100.2483,259.8663,0,U,50159,999,14084,.8528E-4,.1069E-4,0
STARLINK-3288,2021-125E,2024-07-07T19:54:26.157888,15.08838709,.0001248,53.2168,116.8930,86.6852,273.4283,0,U,50160,999,14390,.74303E-4,.895E-5,0
STARLINK-3304,2021-125F,2024-07-07T19:59:44.205792,15.08838402,.0001323,53.2175,116.8760,89.6977,270.4167,0,U,50161,999,14390,.62796E-4,.712E-5,0
STARLINK-3306,2021-125H,2024-07-07T21:11:16.395360,15.08840724,.0001706,53.2186,96.6426,106.8516,253.2663,0,U,50163,999,14419,.2855E-3,.4259E-4,0
STARLINK-3298,2021-125K,2024-07-07T05:20:03.801408,15.08842806,.0001432,53.2175,119.6144,95.3021,264.8135,0,U,50165,999,14121,-.26402E-4,-.708E-5,0
STARLINK-3305,2021-125L,2024-07-08T00:48:33.764832,15.08854361,.0001269,53.2157,105.9083,106.5481,253.5650,0,U,50166,999,14147,.78628E-4,.964E-5,0
STARLINK-3271,2021-125M,2024-07-07T05:10:50.768832,15.08840276,.000153,53.2170,119.6532,97.3030,262.8136,0,U,50167,999,14381,.16989E-3,.2417E-4,0
STARLINK-3296,2021-125N,2024-07-08T04:15:16.280928,15.08843254,.0001346,53.2174,105.4155,98.6216,261.4929,0,U,50168,999,14149,.13582E-3,.1875E-4,0
STARLINK-3301,2021-125P,2024-07-08T03:20:53.495520,15.08842415,.0001409,53.2163,105.5018,101.2419,258.8732,0,U,50169,999,14149,.1163E-3,.1564E-4,0
STARLINK-3245,2021-125Q,2024-07-07T04:01:54.361920,15.08840098,.00015,53.2186,109.8624,89.3665,270.7499,0,U,50170,999,14442,.37253E-4,.305E-5,0
STARLINK-3286,2021-125R,2024-07-07T04:23:05.886528,15.08842318,.0001643,53.2177,109.7934,100.6325,259.4852,0,U,50171,999,14394,.96523E-4,.1249E-4,0
STARLINK-3287,2021-125S,2024-07-08T03:42:04.585536,15.08854384,.0001287,53.2179,105.4337,83.7196,276.3942,0,U,50172,999,14409,.11407E-3,.1529E-4,0
STARLINK-3289,2021-125T,2024-07-07T22:09:34.659648,15.08842534,.0001467,53.2183,96.5387,103.1884,256.9272,0,U,50173,999,14160,.16747E-3,.2379E-4,0
STARLINK-3292,2021-125U,2024-07-07T19:19:28.127424,15.14806101,.0005111,53.2171,104.8510,70.6600,289.4947,0,U,50174,999,14407,.16599E-2,.31023E-3,0
STARLINK-3291,2021-125V,2024-07-07T18:25:40.136160,15.08843359,.0001299,53.2168,107.1689,96.0936,264.0205,0,U,50175,999,14403,.15434E-3,.2169E-4,0
STARLINK-3293,2021-125W,2024-07-08T03:31:28.914816,15.08850276,.0001375,53.2179,105.4679,96.4520,263.6629,0,U,50176,999,14149,.10237E-3,.1342E-4,0
STARLINK-3282,2021-125X,2024-07-07T18:15:04.599360,15.08845264,.0001697,53.2176,107.2008,81.3275,278.7909,0,U,50177,999,14403,.34962E-3,.5281E-4,0
STARLINK-3284,2021-125Y,2024-07-07T01:03:05.112288,15.08833666,.0001334,53.2156,110.2743,94.3591,265.7554,0,U,50178,999,14445,.35732E-3,.5402E-4,0
STARLINK-3283,2021-125Z,2024-07-08T03:36:47.046528,15.08852520,.0001489,53.2179,105.4504,80.8784,279.2376,0,U,50179,999,14409,.75506E-4,.914E-5,0
STARLINK-3265,2021-125AA,2024-07-07T22:30:49.081248,15.08838363,.0001491,53.2175,106.4161,97.9439,262.1723,0,U,50180,999,14146,.14165E-3,.1967E-4,0
STARLINK-3285,2021-125AB,2024-07-07T22:20:13.200576,15.08838165,.0001497,53.2172,106.4485,101.8864,258.2296,0,U,50181,999,14407,.17686E-3,.2528E-4,0
STARLINK-3277,2021-125AC,2024-07-07T20:11:37.807584,15.08841740,.0001275,53.2162,106.6852,88.3168,271.7970,0,U,50182,999,14405,.19404E-3,.2802E-4,0
STARLINK-3281,2021-125AD,2024-07-07T22:13:29.957952,15.08882859,.0001712,53.2149,106.4560,83.1831,276.9356,0,U,50183,999,14146,-.11952E-2,-.19282E-3,0
STARLINK-3279,2021-125AF,2024-07-07T19:18:40.300704,15.08836141,.0001273,53.2168,107.0398,98.8229,261.2907,0,U,50185,999,14405,.74976E-4,.905E-5,0
STARLINK-3274,2021-125AG,2024-07-08T01:54:46.672704,15.08842338,.0001613,53.2171,115.7650,111.7499,248.3665,0,U,50186,999,14395,.1595E-3,.2251E-4,0
STARLINK-3272,2021-125AH,2024-07-07T01:08:21.110784,15.08840128,.0001321,53.2160,100.4019,93.9125,266.2018,0,U,50187,999,14453,.32543E-4,.23E-5,0
STARLINK-3275,2021-125AJ,2024-07-07T20:25:31.611648,15.12120076,.0001121,53.2168,73.9990,105.0661,255.0457,0,U,50188,999,14190,-.6754E-5,-.415E-5,0
STARLINK-3276,2021-125AK,2024-07-08T04:20:33.324000,15.08851010,.0001477,53.2166,105.3220,96.8185,263.2975,0,U,50189,999,14410,.23753E-3,.3495E-4,0
STARLINK-3268,2021-125AL,2024-07-07T23:07:51.031776,15.08843879,.0001505,53.2177,96.2871,105.4678,254.6480,0,U,50190,999,14420,.84513E-4,.1057E-4,0
STARLINK-3273,2021-125AM,2024-07-08T04:07:15.369024,15.08842554,.0001368,53.2174,115.3562,98.5753,261.5394,0,U,50191,999,14135,.15104E-3,.2117E-4,0
STARLINK-3259,2021-125AN,2024-07-07T03:57:55.504800,15.08839776,.0001383,53.2169,99.8726,98.0050,262.1099,0,U,50192,999,14147,.3153E-4,.214E-5,0
STARLINK-3261,2021-125AP,2024-07-07T04:13:49.503360,15.08841245,.000127,53.2149,99.8235,93.2450,266.8688,0,U,50193,999,14408,.63885E-4,.729E-5,0
STARLINK-3269,2021-125AQ,2024-07-07T22:58:38.146080,15.08842666,.0001616,53.2175,96.3246,102.4782,257.6391,0,U,50194,999,14421,.12162E-3,.1648E-4,0
STARLINK-3266,2021-125AR,2024-07-08T00:48:32.218272,15.08845490,.0001407,53.2173,95.9734,97.6995,262.4157,0,U,50195,999,14421,.85081E-4,.1067E-4,0
STARLINK-3267,2021-125AT,2024-07-08T03:38:06.659808,15.08844817,.0001536,53.2177,95.4453,112.0743,248.0413,0,U,50197,999,14423,.52558E-4,.549E-5,0
STARLINK-3264,2021-125AU,2024-07-07T01:50:44.935872,15.08841478,.0001421,53.2183,100.2704,90.5561,269.5594,0,U,50198,999,14455,.44627E-4,.422E-5,0
STARLINK-3270,2021-125AV,2024-07-08T01:15:02.100096,15.08845578,.0001387,53.2171,95.8924,98.0651,262.0499,0,U,50199,999,14421,.10519E-3,.1387E-4,0
STARLINK-3235,2021-125AW,2024-07-07T01:56:02.757408,15.08837876,.0001284,53.2171,100.2155,94.8004,265.3135,0,U,50200,999,14456,-.35917E-5,-.345E-5,0
STARLINK-3255,2021-125AX,2024-07-07T03:22:13.026720,15.08836169,.0001405,53.2172,99.9952,91.0019,269.1134,0,U,50201,999,14408,.67294E-4,.783E-5,0
STARLINK-3256,2021-125AY,2024-07-08T04:20:29.926752,15.08852218,.0001528,53.2183,95.3159,101.1355,258.9809,0,U,50202,999,14423,.14271E-3,.1985E-4,0
STARLINK-3257,2021-125AZ,2024-07-07T03:43:25.283136,15.08842655,.0001473,53.2174,100.0059,98.1121,262.0038,0,U,50203,999,14148,.4018E-4,.352E-5,0
STARLINK-3254,2021-125BA,2024-07-07T22:10:56.799264,15.08835992,.0001361,53.2172,96.4776,95.0096,265.1052,0,U,50204,999,14160,.21976E-3,.3211E-4,0
